{
    "links": {
        "self": "http://www.neowsapp.com/rest/v1/neo/3805265?api_key=iIulBulltgU6a56xZRHN4H3l9WmuAYTsLGpBGhQ2"
    },
    "id": "3805265",
    "neo_reference_id": "3805265",
    "name": "(2018 HR)",
    "designation": "2018 HR",
    "nasa_jpl_url": "http://ssd.jpl.nasa.gov/sbdb.cgi?sstr=3805265",
    "absolute_magnitude_h": 25.5,
    "estimated_diameter": {
        "kilometers": {
            "estimated_diameter_min": 0.0211132445,
            "estimated_diameter_max": 0.0472106499
        },
        "meters": {
            "estimated_diameter_min": 21.113244479,
            "estimated_diameter_max": 47.2106498806
        },
        "miles": {
            "estimated_diameter_min": 0.0131191578,
            "estimated_diameter_max": 0.0293353287
        },
        "feet": {
            "estimated_diameter_min": 69.2691770164,
            "estimated_diameter_max": 154.8905885541
        }
    },
    "is_potentially_hazardous_asteroid": false,
    "close_approach_data": [
        {
            "close_approach_date": "2017-12-17",
            "close_approach_date_full": "2017-Dec-17 04:07",
            "epoch_date_close_approach": 1513483620000,
            "relative_velocity": {
                "kilometers_per_second": "7.3097489131",
                "kilometers_per_hour": "26315.0960872829",
                "miles_per_hour": "16351.1773437898"
            },
            "miss_distance": {
                "astronomical": "0.3557999974",
                "lunar": "138.4061989886",
                "kilometers": "53226921.757045538",
                "miles": "33073675.5331149044"
            },
            "orbiting_body": "Earth"
        },
        {
            "close_approach_date": "2018-04-13",
            "close_approach_date_full": "2018-Apr-13 14:16",
            "epoch_date_close_approach": 1523628960000,
            "relative_velocity": {
                "kilometers_per_second": "10.9870677269",
                "kilometers_per_hour": "39553.4438166985",
                "miles_per_hour": "24576.9717982147"
            },
            "miss_distance": {
                "astronomical": "0.0651120755",
                "lunar": "25.3285973695",
                "kilometers": "9740627.806079185",
                "miles": "6052545.458435353"
            },
            "orbiting_body": "Earth"
        }
    ],
    "orbital_data": {
        "orbit_id": "3",
        "orbit_determination_date": "2018-04-26 06:53:13",
        "first_observation_date": "2018-04-19",
        "last_observation_date": "2018-04-23",
        "data_arc_in_days": 4,
        "observations_used": 25,
        "orbit_uncertainty": "9",
        "minimum_orbit_intersection": ".0642594",
        "jupiter_tisserand_invariant": "4.485",
        "epoch_osculation": "2458228.5",
        "eccentricity": ".3412657303521591",
        "semi_major_axis": "1.474846071845998",
        "inclination": "16.98337775905674",
        "ascending_node_longitude": "210.3651418713472",
        "orbital_period": "654.2119466840744",
        "perihelion_distance": ".9715316499804606",
        "perihelion_argument": "306.3708693287969",
        "aphelion_distance": "1.978160493711536",
        "perihelion_time": "2458180.458265139930",
        "mean_anomaly": "26.43642421586218",
        "mean_motion": ".5502803821065769",
        "equinox": "J2000",
        "orbit_class": {
            "orbit_class_type": "APO",
            "orbit_class_description": "Near-Earth asteroid orbits which cross the Earth’s orbit similar to that of 1862 Apollo",
            "orbit_class_range": "a (semi-major axis) > 1.0 AU; q (perihelion) < 1.017 AU"
        }
    },
    "is_sentry_object": false
}